sat04513
1 04513U 70070B   20046.92116561 -.00000004  00000-0  15218-4 0  9996
2 04513  98.9410 283.6255 0067595 167.7662 192.5182 14.33105203578093
